{"spkid": "50703813", "covariance": {"epoch": "2457592.5", "data": [["3.967691558527596E-15", "-6.885158327209601E-15", "8.217623840779033E-13", "-8.945038604425429E-13", "1.304217881180928E-12", "-3.457782845665258E-13"], ["-6.885158327209601E-15", "1.197220416256793E-14", "-1.4939813847652E-12", "1.610240670344292E-12", "-2.368392909542419E-12", "6.157262385783988E-13"], ["8.217623840779033E-13", "-1.4939813847652E-12", "4.112716488967308E-10", "-3.587453620871709E-10", "6.163264522212778E-10", "-1.200125098008459E-10"], ["-8.945038604425429E-13", "1.610240670344292E-12", "-3.587453620871709E-10", "4.811632171096742E-9", "-5.007301704575274E-9", "1.195858671420949E-9"], ["1.304217881180928E-12", "-2.368392909542419E-12", "6.163264522212778E-10", "-5.007301704575274E-9", "5.376172194448612E-9", "-1.259474473587543E-9"], ["-3.457782845665258E-13", "6.157262385783988E-13", "-1.200125098008459E-10", "1.195858671420949E-9", "-1.259474473587543E-9", "3.327132078220898E-10"]], "elements": [{"label": "e", "sigma": 6.29896146878801e-08, "name": "e", "title": "eccentricity", "value": ".5177557689129211", "units": null}, {"sigma": 1.09417567888196e-07, "name": "q", "units": "au", "title": "perihelion distance", "value": ".7478791501715699", "label": "q"}, {"label": "tp", "value": "2457668.686367463778", "title": "time of perihelion passage", "units": "TDB", "sigma": 2.02798335519977e-05, "name": "tp"}, {"label": "node", "units": "deg", "value": "275.1912859793489", "title": "longitude of the ascending node", "sigma": 6.93659294689889e-05, "name": "om"}, {"units": "deg", "value": "107.49310724732", "title": "argument of perihelion", "sigma": 7.33223853570559e-05, "name": "w", "label": "peri"}, {"sigma": 1.82404278409825e-05, "name": "i", "title": "inclination", "value": "5.582879590183975", "units": "deg", "label": "i"}], "labels": ["e", "q", "tp", "node", "peri", "i"]}, "elements": [{"units": null, "value": ".5171454322374162", "title": "eccentricity", "sigma": "6.3252E-8", "name": "e", "label": "e"}, {"sigma": "2.5651E-8", "name": "a", "units": "au", "title": "semi-major axis", "value": "1.550256358306985", "label": "a"}, {"label": "q", "value": ".7485483638115163", "title": "perihelion distance", "units": "au", "sigma": "1.0962E-7", "name": "q"}, {"name": "i", "sigma": "1.8249E-5", "units": "deg", "value": "5.583838221936929", "title": "inclination; angle with respect to x-y ecliptic plane", "label": "i"}, {"label": "node", "name": "om", "sigma": "6.9458E-5", "units": "deg", "title": "longitude of the ascending node", "value": "275.023712007007"}, {"units": "deg", "title": "argument of perihelion", "value": "107.70634513", "sigma": "7.3454E-5", "name": "w", "label": "peri"}, {"label": "M", "sigma": "3.6851E-5", "name": "ma", "units": "deg", "title": "mean anomaly", "value": "3.018757809069254"}, {"label": "tp", "title": "time of perihelion passage", "value": "2461194.588067326744", "units": "TDB", "name": "tp", "sigma": "7.2025E-5"}, {"label": "period", "sigma": "1.7498E-5", "name": "per", "title": "sidereal orbital period", "value": "705.0236875505384", "units": "d"}, {"label": "n", "units": "deg/d", "value": ".5106211413275302", "title": "mean motion", "sigma": "1.2673E-8", "name": "n"}, {"name": "ad", "sigma": "3.8917E-8", "units": "au", "title": "aphelion distance", "value": "2.351964352802453", "label": "Q"}], "epoch": "2461200.5"}